$$SOE
2460714.500000000, A.D. 2025-Feb-08 00:00:00.0000, -2.800963071179182E+08, -6.258638740362357E+08, 4.452567139153799E+07,
2460721.500000000, A.D. 2025-Feb-15 00:00:00.0000, -2.728042639334149E+08, -6.277514004141288E+08, 4.611979002464995E+07,
2460728.500000000, A.D. 2025-Feb-22 00:00:00.0000, -2.654712015770196E+08, -6.295446054801140E+08, 4.770697351931038E+07,
2460735.500000000, A.D. 2025-Mar-01 00:00:00.0000, -2.580980233954735E+08, -6.312427514343212E+08, 4.928694758408296E+07,
2460742.500000000, A.D. 2025-Mar-08 00:00:00.0000, -2.506856442364380E+08, -6.328451015913001E+08, 5.085943567166847E+07,
2460749.500000000, A.D. 2025-Mar-15 00:00:00.0000, -2.432349907414743E+08, -6.343509186401905E+08, 5.242415910031676E+07,
2460756.500000000, A.D. 2025-Mar-22 00:00:00.0000, -2.357470038518336E+08, -6.357594643248272E+08, 5.398083726380235E+07,
2460763.500000000, A.D. 2025-Mar-29 00:00:00.0000, -2.282226399494572E+08, -6.370700013860860E+08, 5.552918753283045E+07,
2460770.500000000, A.D. 2025-Apr-05 00:00:00.0000, -2.206628703081210E+08, -6.382817946287009E+08, 5.706892507434675E+07,
2460777.500000000, A.D. 2025-Apr-12 00:00:00.0000, -2.130686807809287E+08, -6.393941110087334E+08, 5.859976277370277E+07,
2460784.500000000, A.D. 2025-Apr-19 00:00:00.0000, -2.054410719115189E+08, -6.404062196229442E+08, 6.012141120460454E+07,
2460791.500000000, A.D. 2025-Apr-26 00:00:00.0000, -1.977810591974249E+08, -6.413173918028628E+08, 6.163357860511136E+07,
2460798.500000000, A.D. 2025-May-03 00:00:00.0000, -1.900896733919392E+08, -6.421269012940729E+08, 6.313597085062382E+07,
2460805.500000000, A.D. 2025-May-10 00:00:00.0000, -1.823679608158326E+08, -6.428340245117650E+08, 6.462829142176908E+07,
2460812.500000000, A.D. 2025-May-17 00:00:00.0000, -1.746169836420562E+08, -6.434380409133891E+08, 6.611024136033037E+07,
2460819.500000000, A.D. 2025-May-24 00:00:00.0000, -1.668378199793120E+08, -6.439382335428398E+08, 6.758151919273645E+07,
2460826.500000000, A.D. 2025-May-31 00:00:00.0000, -1.590315633365393E+08, -6.443338894353751E+08, 6.904182080820113E+07,
2460833.500000000, A.D. 2025-Jun-07 00:00:00.0000, -1.511993218691812E+08, -6.446242986787238E+08, 7.049083942679030E+07,
2460840.500000000, A.D. 2025-Jun-14 00:00:00.0000, -1.433422197717022E+08, -6.448087527973789E+08, 7.192826581985107E+07,
2460847.500000000, A.D. 2025-Jun-21 00:00:00.0000, -1.354613995993665E+08, -6.448865457316412E+08, 7.335378840390760E+07,
2460854.500000000, A.D. 2025-Jun-28 00:00:00.0000, -1.275580223909505E+08, -6.448569756473399E+08, 7.476709306548095E+07,
2460861.500000000, A.D. 2025-Jul-05 00:00:00.0000, -1.196332671092087E+08, -6.447193454203357E+08, 7.616786303239715E+07,
2460868.500000000, A.D. 2025-Jul-12 00:00:00.0000, -1.116883305901676E+08, -6.444729626014142E+08, 7.755577883519039E+07,
2460875.500000000, A.D. 2025-Jul-19 00:00:00.0000, -1.037244278116294E+08, -6.441171394368213E+08, 7.893051829436946E+07,
2460882.500000000, A.D. 2025-Jul-26 00:00:00.0000, -9.574279227082136E+07, -6.436511930012009E+08, 8.029175650982445E+07,
2460889.500000000, A.D. 2025-Aug-02 00:00:00.0000, -8.774467640560333E+07, -6.430744454215279E+08, 8.163916584832564E+07,
2460896.500000000, A.D. 2025-Aug-09 00:00:00.0000, -7.973135203559145E+07, -6.423862242069439E+08, 8.297241592600361E+07,
2460903.500000000, A.D. 2025-Aug-16 00:00:00.0000, -7.170411074604531E+07, -6.415858627480481E+08, 8.429117357389024E+07,
2460910.500000000, A.D. 2025-Aug-23 00:00:00.0000, -6.366426392173520E+07, -6.406727009695181E+08, 8.559510276138949E+07,
2460917.500000000, A.D. 2025-Aug-30 00:00:00.0000, -5.561314210174932E+07, -6.396460854224085E+08, 8.688386450625822E+07,
2460924.500000000, A.D. 2025-Sep-06 00:00:00.0000, -4.755209507329550E+07, -6.385053678161018E+08, 8.815711698328897E+07,
2460931.500000000, A.D. 2025-Sep-13 00:00:00.0000, -3.948249437499292E+07, -6.372499044728179E+08, 8.941451578231496E+07,
2460938.500000000, A.D. 2025-Sep-20 00:00:00.0000, -3.140573493586729E+07, -6.358790583493611E+08, 9.065571388123047E+07,
2460945.500000000, A.D. 2025-Sep-27 00:00:00.0000, -2.332323479105977E+07, -6.343922005152547E+08, 9.188036149164551E+07,
2460952.500000000, A.D. 2025-Oct-04 00:00:00.0000, -1.523643489069263E+07, -6.327887105486646E+08, 9.308810600660577E+07,
2460959.500000000, A.D. 2025-Oct-11 00:00:00.0000, -7.146799375272869E+06, -6.310679767935067E+08, 9.427859200786740E+07,
2460966.500000000, A.D. 2025-Oct-18 00:00:00.0000, 9.441839663942929E+05, -6.292293967524236E+08, 9.545146128446108E+07,
2460973.500000000, A.D. 2025-Oct-25 00:00:00.0000, 9.035003196755312E+06, -6.272723776048187E+08, 9.660635285074916E+07,
2460980.500000000, A.D. 2025-Nov-01 00:00:00.0000, 1.712412172648827E+07, -6.251963368346386E+08, 9.774290296166205E+07,
2460987.500000000, A.D. 2025-Nov-08 00:00:00.0000, 2.520997784406671E+07, -6.230007029995565E+08, 9.886074511940399E+07,
2460994.500000000, A.D. 2025-Nov-15 00:00:00.0000, 3.329098442638518E+07, -6.206849167004869E+08, 9.995951005332896E+07,
2461001.500000000, A.D. 2025-Nov-22 00:00:00.0000, 4.136552923370396E+07, -6.182484315318322E+08, 1.010388256541333E+08,
2461008.500000000, A.D. 2025-Nov-29 00:00:00.0000, 4.943197563616329E+07, -6.156907138779960E+08, 1.020983169692861E+08,
2461015.500000000, A.D. 2025-Dec-06 00:00:00.0000, 5.748866149481762E+07, -6.130112416924684E+08, 1.031376064575248E+08,
2461022.500000000, A.D. 2025-Dec-13 00:00:00.0000, 6.553389663145490E+07, -6.102095056298375E+08, 1.041563141871809E+08,
2461029.500000000, A.D. 2025-Dec-20 00:00:00.0000, 7.356596238124838E+07, -6.072850115078945E+08, 1.051540577416651E+08,
2461036.500000000, A.D. 2025-Dec-27 00:00:00.0000, 8.158311215514840E+07, -6.042372815090324E+08, 1.061304521426398E+08,
2461043.500000000, A.D. 2026-Jan-03 00:00:00.0000, 8.958357155339462E+07, -6.010658547365466E+08, 1.070851098746410E+08,
2461050.500000000, A.D. 2026-Jan-10 00:00:00.0000, 9.756553814069326E+07, -5.977702878043721E+08, 1.080176409457647E+08,
2461057.500000000, A.D. 2026-Jan-17 00:00:00.0000, 1.055271811166934E+08, -5.943501555512872E+08, 1.089276529557755E+08,
2461064.500000000, A.D. 2026-Jan-24 00:00:00.0000, 1.134666409610467E+08, -5.908050518564652E+08, 1.098147511665962E+08,
2461071.500000000, A.D. 2026-Jan-31 00:00:00.0000, 1.213820290780207E+08, -5.871345905635597E+08, 1.106785385727958E+08,
2461078.500000000, A.D. 2026-Feb-07 00:00:00.0000, 1.292714275037365E+08, -5.833384065707171E+08, 1.115186159622730E+08,
2461085.500000000, A.D. 2026-Feb-14 00:00:00.0000, 1.371328889305536E+08, -5.794161571021063E+08, 1.123345819433110E+08,
2461092.500000000, A.D. 2026-Feb-21 00:00:00.0000, 1.449644374374608E+08, -5.753675225843695E+08, 1.131260329503029E+08,
2461099.500000000, A.D. 2026-Feb-28 00:00:00.0000, 1.527640688427311E+08, -5.711922059749160E+08, 1.138925634225220E+08,
2461106.500000000, A.D. 2026-Mar-07 00:00:00.0000, 1.605297486213410E+08, -5.668899324921219E+08, 1.146337661857577E+08,
2461113.500000000, A.D. 2026-Mar-14 00:00:00.0000, 1.682594101643773E+08, -5.624604520800743E+08, 1.153492325918337E+08,
2461120.500000000, A.D. 2026-Mar-21 00:00:00.0000, 1.759509551652480E+08, -5.579035417103033E+08, 1.160385524897806E+08,
2461127.500000000, A.D. 2026-Mar-28 00:00:00.0000, 1.836022541251524E+08, -5.532190064925537E+08, 1.167013142976402E+08,
2461134.500000000, A.D. 2026-Apr-04 00:00:00.0000, 1.912111463758756E+08, -5.484066805607868E+08, 1.173371051519556E+08,
2461141.500000000, A.D. 2026-Apr-11 00:00:00.0000, 1.987754398957165E+08, -5.434664280947636E+08, 1.179455110809922E+08,
2461148.500000000, A.D. 2026-Apr-18 00:00:00.0000, 2.062929110799180E+08, -5.383981444842156E+08, 1.185261171871182E+08,
2461155.500000000, A.D. 2026-Apr-25 00:00:00.0000, 2.137613045137384E+08, -5.332017576211005E+08, 1.190785078359086E+08,
2461162.500000000, A.D. 2026-May-02 00:00:00.0000, 2.211783327814452E+08, -5.278772293496258E+08, 1.196022668472703E+08,
2461169.500000000, A.D. 2026-May-09 00:00:00.0000, 2.285416764387047E+08, -5.224245571402971E+08, 1.200969776723079E+08,
2461176.500000000, A.D. 2026-May-16 00:00:00.0000, 2.358489845293931E+08, -5.168437758497869E+08, 1.205622235332157E+08,
2461183.500000000, A.D. 2026-May-23 00:00:00.0000, 2.430978757016751E+08, -5.111349585445577E+08, 1.209975876057124E+08,
2461190.500000000, A.D. 2026-May-30 00:00:00.0000, 2.502859378475741E+08, -5.052982160688543E+08, 1.214026534613582E+08,
2461197.500000000, A.D. 2026-Jun-06 00:00:00.0000, 2.574107259512404E+08, -4.993336986301352E+08, 1.217770055315542E+08,
2461204.500000000, A.D. 2026-Jun-13 00:00:00.0000, 2.644697618148753E+08, -4.932415992021760E+08, 1.221202292733811E+08,
2461211.500000000, A.D. 2026-Jun-20 00:00:00.0000, 2.714605351646355E+08, -4.870221558193502E+08, 1.224319113227235E+08,
2461218.500000000, A.D. 2026-Jun-27 00:00:00.0000, 2.783805044413542E+08, -4.806756531016260E+08, 1.227116397630529E+08,
2461225.500000000, A.D. 2026-Jul-04 00:00:00.0000, 2.852270972790899E+08, -4.742024237845433E+08, 1.229590044468033E+08,
2461232.500000000, A.D. 2026-Jul-11 00:00:00.0000, 2.919977109286049E+08, -4.676028503851684E+08, 1.231735973354652E+08,
2461239.500000000, A.D. 2026-Jul-18 00:00:00.0000, 2.986897127217116E+08, -4.608773669771435E+08, 1.233550128521442E+08,
2461246.500000000, A.D. 2026-Jul-25 00:00:00.0000, 3.053004406042098E+08, -4.540264610706595E+08, 1.235028482446772E+08,
2461253.500000000, A.D. 2026-Aug-01 00:00:00.0000, 3.118272037889258E+08, -4.470506756436753E+08, 1.236167039510330E+08,
2461260.500000000, A.D. 2026-Aug-08 00:00:00.0000, 3.182672837474392E+08, -4.399506113581890E+08, 1.236961839445137E+08,
2461267.500000000, A.D. 2026-Aug-15 00:00:00.0000, 3.246179359594995E+08, -4.327269285091181E+08, 1.237408960578838E+08,
2461274.500000000, A.D. 2026-Aug-22 00:00:00.0000, 3.308763916629566E+08, -4.253803474826240E+08, 1.237504524566269E+08,
2461281.500000000, A.D. 2026-Aug-29 00:00:00.0000, 3.370398573183396E+08, -4.179116490944101E+08, 1.237244703594424E+08,
$$EOE